STARLINK-37016          
1 68288U 26055AC  26088.16668981 -.01400937  59505-3 -31309-2 0  9990
2 68288  53.1569 239.7995 0000724  70.3169 173.4927 15.97196834  2767
STARLINK-37010          
1 68289U 26055AD  26088.16668981 -.01552866  72144-3 -34013-2 0  9999
2 68289  53.1573 239.7769 0000684  73.2379 181.0469 15.97584750  2766
STARLINK-37151          
1 68290U 26055AE  26088.16668981 -.01545273  71571-3 -33663-2 0  9998
2 68290  53.1569 239.7717 0000822  72.6478 184.3553 15.97681657  2767
STRIX-6                 
1 68291U 26056A   26088.11249302  .00007089  00000+0  58827-3 0  9997
2 68291  50.2845   8.1614 0016612 297.1676  62.7579 14.99609534  1250
ELECTRON R/B            
1 68292U 26056B   26088.13241444  .03829952  11162-4  11860-2 0  9994
2 68292  50.2592   2.9003 0169667 283.2889  74.9229 15.99751298  1326
ELECTRON KICK STAGE R/B 
1 68293U 26056C   26088.16045927  .00122042  00000+0  19337-2 0  9990
2 68293  50.2934   5.4739 0157168  44.7835 316.5694 15.39693370  1304
STARLINK-37107          
1 68294U 26057A   26088.16668981 -.01134368  41786-3 -21442-2 0  9990
2 68294  97.2812 211.3132 0001324  58.9937 278.1722 16.00832915  2291
STARLINK-37147          
1 68295U 26057B   26088.16668981 -.01137192  42015-3 -21401-2 0  9990
2 68295  97.2808 211.3139 0001363  58.5642 281.0225 16.00910053  2286
STARLINK-37142          
1 68296U 26057C   26088.16668981 -.01150675  43097-3 -21265-2 0  9991
2 68296  97.2805 211.3172 0001373  59.9430 287.5887 16.01228720  2179
STARLINK-37115          
1 68297U 26057D   26088.16668981 -.01141770  42439-3 -21207-2 0  9993
2 68297  97.2803 211.3152 0001312  50.4645 294.6273 16.01139798  2177
STARLINK-36355          
1 68298U 26057E   26088.16668981 -.01139731  42243-3 -21310-2 0  9996
2 68298  97.2806 211.3146 0001317  52.9814 289.0412 16.01024144  2445
STARLINK-37118          
1 68299U 26057F   26088.16668981 -.01161163  43938-3 -21187-2 0  9995
2 68299  97.2801 211.3194 0001314  56.1427 296.9381 16.01451902  2287
STARLINK-36875          
1 68300U 26057G   26088.16668981 -.01146051  42841-3 -21019-2 0  9993
2 68300  97.2803 211.3182 0001353  50.4111 300.2727 16.01360638  2344
STARLINK-37099          
1 68301U 26057H   26088.16668981 -.01159430  43879-3 -21004-2 0  9995
2 68301  97.2799 211.3212 0001193  57.5873 298.8531 16.01577294  2172
STARLINK-37007          
1 68302U 26057J   26088.16668981 -.01169021  44685-3 -20864-2 0  9992
2 68302  97.2795 211.3237 0001329  56.9385 306.1266 16.01836585  2391
STARLINK-36300          
1 68303U 26057K   26088.16668981 -.01136810  42366-3 -20450-2 0  9998
2 68303  97.2796 211.3225 0001357  53.4662 306.5637 16.01694840  2449
