[{"OBJECT_NAME":"STARLINK-37016","OBJECT_ID":"2026-055AC","EPOCH":"2026-03-29T04:00:01.999584","MEAN_MOTION":15.97196834,"ECCENTRICITY":7.24e-5,"INCLINATION":53.1569,"RA_OF_ASC_NODE":239.7995,"ARG_OF_PERICENTER":70.3169,"MEAN_ANOMALY":173.4927,"EPHEMERIS_TYPE":0,"CLASSIFICATION_TYPE":"U","NORAD_CAT_ID":68288,"ELEMENT_SET_NO":999,"REV_AT_EPOCH":276,"BSTAR":-0.0031309,"MEAN_MOTION_DOT":-0.01400937,"MEAN_MOTION_DDOT":0.00059505},{"OBJECT_NAME":"STARLINK-37010","OBJECT_ID":"2026-055AD","EPOCH":"2026-03-29T04:00:01.999584","MEAN_MOTION":15.9758475,"ECCENTRICITY":6.84e-5,"INCLINATION":53.1573,"RA_OF_ASC_NODE":239.7769,"ARG_OF_PERICENTER":73.2379,"MEAN_ANOMALY":181.0469,"EPHEMERIS_TYPE":0,"CLASSIFICATION_TYPE":"U","NORAD_CAT_ID":68289,"ELEMENT_SET_NO":999,"REV_AT_EPOCH":276,"BSTAR":-0.0034013,"MEAN_MOTION_DOT":-0.01552866,"MEAN_MOTION_DDOT":0.00072144},{"OBJECT_NAME":"STARLINK-37151","OBJECT_ID":"2026-055AE","EPOCH":"2026-03-29T04:00:01.999584","MEAN_MOTION":15.97681657,"ECCENTRICITY":8.22e-5,"INCLINATION":53.1569,"RA_OF_ASC_NODE":239.7717,"ARG_OF_PERICENTER":72.6478,"MEAN_ANOMALY":184.3553,"EPHEMERIS_TYPE":0,"CLASSIFICATION_TYPE":"U","NORAD_CAT_ID":68290,"ELEMENT_SET_NO":999,"REV_AT_EPOCH":276,"BSTAR":-0.0033663,"MEAN_MOTION_DOT":-0.01545273,"MEAN_MOTION_DDOT":0.00071571},{"OBJECT_NAME":"STRIX-6","OBJECT_ID":"2026-056A","EPOCH":"2026-03-29T02:41:59.396928","MEAN_MOTION":14.99609534,"ECCENTRICITY":0.0016612,"INCLINATION":50.2845,"RA_OF_ASC_NODE":8.1614,"ARG_OF_PERICENTER":297.1676,"MEAN_ANOMALY":62.7579,"EPHEMERIS_TYPE":0,"CLASSIFICATION_TYPE":"U","NORAD_CAT_ID":68291,"ELEMENT_SET_NO":999,"REV_AT_EPOCH":125,"BSTAR":0.00058827,"MEAN_MOTION_DOT":7.089e-5,"MEAN_MOTION_DDOT":0},{"OBJECT_NAME":"ELECTRON R/B","OBJECT_ID":"2026-056B","EPOCH":"2026-03-29T03:10:40.607616","MEAN_MOTION":15.99751298,"ECCENTRICITY":0.0169667,"INCLINATION":50.2592,"RA_OF_ASC_NODE":2.9003,"ARG_OF_PERICENTER":283.2889,"MEAN_ANOMALY":74.9229,"EPHEMERIS_TYPE":0,"CLASSIFICATION_TYPE":"U","NORAD_CAT_ID":68292,"ELEMENT_SET_NO":999,"REV_AT_EPOCH":132,"BSTAR":0.001186,"MEAN_MOTION_DOT":0.03829952,"MEAN_MOTION_DDOT":1.1162e-5},{"OBJECT_NAME":"ELECTRON KICK STAGE R/B","OBJECT_ID":"2026-056C","EPOCH":"2026-03-29T03:51:03.680928","MEAN_MOTION":15.3969337,"ECCENTRICITY":0.0157168,"INCLINATION":50.2934,"RA_OF_ASC_NODE":5.4739,"ARG_OF_PERICENTER":44.7835,"MEAN_ANOMALY":316.5694,"EPHEMERIS_TYPE":0,"CLASSIFICATION_TYPE":"U","NORAD_CAT_ID":68293,"ELEMENT_SET_NO":999,"REV_AT_EPOCH":130,"BSTAR":0.0019337,"MEAN_MOTION_DOT":0.00122042,"MEAN_MOTION_DDOT":0},{"OBJECT_NAME":"STARLINK-37107","OBJECT_ID":"2026-057A","EPOCH":"2026-03-29T04:00:01.999584","MEAN_MOTION":16.00832915,"ECCENTRICITY":0.0001324,"INCLINATION":97.2812,"RA_OF_ASC_NODE":211.3132,"ARG_OF_PERICENTER":58.9937,"MEAN_ANOMALY":278.1722,"EPHEMERIS_TYPE":0,"CLASSIFICATION_TYPE":"U","NORAD_CAT_ID":68294,"ELEMENT_SET_NO":999,"REV_AT_EPOCH":229,"BSTAR":-0.0021442,"MEAN_MOTION_DOT":-0.01134368,"MEAN_MOTION_DDOT":0.00041786},{"OBJECT_NAME":"STARLINK-37147","OBJECT_ID":"2026-057B","EPOCH":"2026-03-29T04:00:01.999584","MEAN_MOTION":16.00910053,"ECCENTRICITY":0.0001363,"INCLINATION":97.2808,"RA_OF_ASC_NODE":211.3139,"ARG_OF_PERICENTER":58.5642,"MEAN_ANOMALY":281.0225,"EPHEMERIS_TYPE":0,"CLASSIFICATION_TYPE":"U","NORAD_CAT_ID":68295,"ELEMENT_SET_NO":999,"REV_AT_EPOCH":228,"BSTAR":-0.0021401,"MEAN_MOTION_DOT":-0.01137192,"MEAN_MOTION_DDOT":0.00042015},{"OBJECT_NAME":"STARLINK-37142","OBJECT_ID":"2026-057C","EPOCH":"2026-03-29T04:00:01.999584","MEAN_MOTION":16.0122872,"ECCENTRICITY":0.0001373,"INCLINATION":97.2805,"RA_OF_ASC_NODE":211.3172,"ARG_OF_PERICENTER":59.943,"MEAN_ANOMALY":287.5887,"EPHEMERIS_TYPE":0,"CLASSIFICATION_TYPE":"U","NORAD_CAT_ID":68296,"ELEMENT_SET_NO":999,"REV_AT_EPOCH":217,"BSTAR":-0.0021265,"MEAN_MOTION_DOT":-0.01150675,"MEAN_MOTION_DDOT":0.00043097},{"OBJECT_NAME":"STARLINK-37115","OBJECT_ID":"2026-057D","EPOCH":"2026-03-29T04:00:01.999584","MEAN_MOTION":16.01139798,"ECCENTRICITY":0.0001312,"INCLINATION":97.2803,"RA_OF_ASC_NODE":211.3152,"ARG_OF_PERICENTER":50.4645,"MEAN_ANOMALY":294.6273,"EPHEMERIS_TYPE":0,"CLASSIFICATION_TYPE":"U","NORAD_CAT_ID":68297,"ELEMENT_SET_NO":999,"REV_AT_EPOCH":217,"BSTAR":-0.0021207,"MEAN_MOTION_DOT":-0.0114177,"MEAN_MOTION_DDOT":0.00042439},{"OBJECT_NAME":"STARLINK-36355","OBJECT_ID":"2026-057E","EPOCH":"2026-03-29T04:00:01.999584","MEAN_MOTION":16.01024144,"ECCENTRICITY":0.0001317,"INCLINATION":97.2806,"RA_OF_ASC_NODE":211.3146,"ARG_OF_PERICENTER":52.9814,"MEAN_ANOMALY":289.0412,"EPHEMERIS_TYPE":0,"CLASSIFICATION_TYPE":"U","NORAD_CAT_ID":68298,"ELEMENT_SET_NO":999,"REV_AT_EPOCH":244,"BSTAR":-0.002131,"MEAN_MOTION_DOT":-0.01139731,"MEAN_MOTION_DDOT":0.00042243},{"OBJECT_NAME":"STARLINK-37118","OBJECT_ID":"2026-057F","EPOCH":"2026-03-29T04:00:01.999584","MEAN_MOTION":16.01451902,"ECCENTRICITY":0.0001314,"INCLINATION":97.2801,"RA_OF_ASC_NODE":211.3194,"ARG_OF_PERICENTER":56.1427,"MEAN_ANOMALY":296.9381,"EPHEMERIS_TYPE":0,"CLASSIFICATION_TYPE":"U","NORAD_CAT_ID":68299,"ELEMENT_SET_NO":999,"REV_AT_EPOCH":228,"BSTAR":-0.0021187,"MEAN_MOTION_DOT":-0.01161163,"MEAN_MOTION_DDOT":0.00043938},{"OBJECT_NAME":"STARLINK-36875","OBJECT_ID":"2026-057G","EPOCH":"2026-03-29T04:00:01.999584","MEAN_MOTION":16.01360638,"ECCENTRICITY":0.0001353,"INCLINATION":97.2803,"RA_OF_ASC_NODE":211.3182,"ARG_OF_PERICENTER":50.4111,"MEAN_ANOMALY":300.2727,"EPHEMERIS_TYPE":0,"CLASSIFICATION_TYPE":"U","NORAD_CAT_ID":68300,"ELEMENT_SET_NO":999,"REV_AT_EPOCH":234,"BSTAR":-0.0021019,"MEAN_MOTION_DOT":-0.01146051,"MEAN_MOTION_DDOT":0.00042841},{"OBJECT_NAME":"STARLINK-37099","OBJECT_ID":"2026-057H","EPOCH":"2026-03-29T04:00:01.999584","MEAN_MOTION":16.01577294,"ECCENTRICITY":0.0001193,"INCLINATION":97.2799,"RA_OF_ASC_NODE":211.3212,"ARG_OF_PERICENTER":57.5873,"MEAN_ANOMALY":298.8531,"EPHEMERIS_TYPE":0,"CLASSIFICATION_TYPE":"U","NORAD_CAT_ID":68301,"ELEMENT_SET_NO":999,"REV_AT_EPOCH":217,"BSTAR":-0.0021004,"MEAN_MOTION_DOT":-0.0115943,"MEAN_MOTION_DDOT":0.00043879},{"OBJECT_NAME":"STARLINK-37007","OBJECT_ID":"2026-057J","EPOCH":"2026-03-29T04:00:01.999584","MEAN_MOTION":16.01836585,"ECCENTRICITY":0.0001329,"INCLINATION":97.2795,"RA_OF_ASC_NODE":211.3237,"ARG_OF_PERICENTER":56.9385,"MEAN_ANOMALY":306.1266,"EPHEMERIS_TYPE":0,"CLASSIFICATION_TYPE":"U","NORAD_CAT_ID":68302,"ELEMENT_SET_NO":999,"REV_AT_EPOCH":239,"BSTAR":-0.0020864,"MEAN_MOTION_DOT":-0.01169021,"MEAN_MOTION_DDOT":0.00044685},{"OBJECT_NAME":"STARLINK-36300","OBJECT_ID":"2026-057K","EPOCH":"2026-03-29T04:00:01.999584","MEAN_MOTION":16.0169484,"ECCENTRICITY":0.0001357,"INCLINATION":97.2796,"RA_OF_ASC_NODE":211.3225,"ARG_OF_PERICENTER":53.4662,"MEAN_ANOMALY":306.5637,"EPHEMERIS_TYPE":0,"CLASSIFICATION_TYPE":"U","NORAD_CAT_ID":68303,"ELEMENT_SET_NO":999,"REV_AT_EPOCH":244,"BSTAR":-0.002045,"MEAN_MOTION_DOT":-0.0113681,"MEAN_MOTION_DDOT":0.00042366}]
